NORAD_CAT_ID,OBJECT_NAME,OBJECT_TYPE,EPOCH,MEAN_MOTION,ECCENTRICITY,INCLINATION,RA_OF_ASC_NODE,ARG_OF_PERICENTER,MEAN_ANOMALY,BSTAR,MEAN_MOTION_DOT,MEAN_MOTION_DDOT,TLE_LINE0,TLE_LINE1,TLE_LINE2,SEMIMAJOR_AXIS,PERIOD,APOGEE,PERIGEE,DECAYED
52348.0,STARLINK-3829,PAYLOAD,2024-05-21 15:57:10,15.08838224,9.81e-05,53.2154,268.618,96.0244,264.086,0.00029982,4.487e-05,0.0,0 STARLINK-3829,1 52348U 22045T   24142.66470488  .00004487  00000-0  29982-3 0  9997,2 52348  53.2154 268.6180 0000981  96.0244 264.0860 15.08838224116597,6917.886,95.438,540.429,539.072,0.0
52348.0,STARLINK-3829,PAYLOAD,2024-05-23 12:27:58,15.088463,0.0001341,53.2164,260.2942,63.8956,296.2174,0.00027775,4.136e-05,0.0,0 STARLINK-3829,1 52348U 22045T   24144.51942765  .00004136  00000-0  27775-3 0  9994,2 52348  53.2164 260.2942 0001341  63.8956 296.2174 15.08846300116875,6917.861,95.437,540.654,538.798,0.0
52348.0,STARLINK-3829,PAYLOAD,2024-05-23 14:03:21,15.08848203,0.0001522,53.2163,259.9972,58.6336,301.4805,0.00031406,4.715e-05,0.0,0 STARLINK-3829,1 52348U 22045T   24144.58566774  .00004715  00000-0  31406-3 0  9992,2 52348  53.2163 259.9972 0001522  58.6336 301.4805 15.08848203116882,6917.855,95.437,540.773,538.667,0.0
52348.0,STARLINK-3829,PAYLOAD,2024-05-24 12:18:45,15.08847018,0.0001026,53.2141,255.8304,88.6005,271.5104,8.4903e-05,1.064e-05,0.0,0 STARLINK-3829,1 52348U 22045T   24145.51302389  .00001064  00000-0  84903-4 0  9991,2 52348  53.2141 255.8304 0001026  88.6005 271.5104 15.08847018117026,6917.859,95.437,540.434,539.014,0.0
52348.0,STARLINK-3829,PAYLOAD,2024-05-24 13:54:08,15.08852793,0.0001118,53.2146,255.5317,97.4063,262.7057,5.0602e-05,5.18e-06,0.0,0 STARLINK-3829,1 52348U 22045T   24145.57926212  .00000518  00000-0  50602-4 0  9996,2 52348  53.2146 255.5317 0001118  97.4063 262.7057 15.08852793117032,6917.841,95.437,540.48,538.933,0.0
52348.0,STARLINK-3829,PAYLOAD,2024-05-24 17:04:54,15.08849769,0.0001215,53.2154,254.9393,94.9325,265.1806,0.00015589,2.195e-05,0.0,0 STARLINK-3829,1 52348U 22045T   24145.71174189  .00002195  00000-0  15589-3 0  9997,2 52348  53.2154 254.9393 0001215  94.9325 265.1806 15.08849769117059,6917.851,95.437,540.556,538.875,0.0
52348.0,STARLINK-3829,PAYLOAD,2024-05-25 13:44:56,15.08831579,0.0001187,53.2157,251.0803,72.8558,287.2564,-0.00012479,-2.273e-05,0.0,0 STARLINK-3829,1 52348U 22045T   24146.57287061 -.00002273  00000-0 -12479-3 0  9990,2 52348  53.2157 251.0803 0001187  72.8558 287.2564 15.08831579117187,6917.906,95.438,540.592,538.95,0.0
52348.0,STARLINK-3829,PAYLOAD,2024-05-25 16:55:42,15.0883832,0.000137,53.2164,250.4833,70.7489,289.3651,1.8729e-05,1e-07,0.0,0 STARLINK-3829,1 52348U 22045T   24146.70534858  .00000010  00000-0  18729-4 0  9994,2 52348  53.2164 250.4833 0001370  70.7489 289.3651 15.08838320117209,6917.886,95.438,540.698,538.803,0.0
52348.0,STARLINK-3829,PAYLOAD,2024-05-26 13:35:42,15.08859259,0.0001085,53.2164,246.6177,85.4447,274.6669,0.00045504,6.965e-05,0.0,0 STARLINK-3829,1 52348U 22045T   24147.56646012  .00006965  00000-0  45504-3 0  9990,2 52348  53.2164 246.6177 0001085  85.4447 274.6669 15.08859259117331,6917.822,95.436,540.437,538.936,0.0
52348.0,STARLINK-3829,PAYLOAD,2024-05-26 16:46:28,15.08861553,0.0001108,53.2163,246.0231,84.7362,275.3757,0.00045726,7.001e-05,0.0,0 STARLINK-3829,1 52348U 22045T   24147.69893736  .00007001  00000-0  45726-3 0  9999,2 52348  53.2163 246.0231 0001108  84.7362 275.3757 15.08861553117357,6917.815,95.436,540.446,538.913,0.0
52348.0,STARLINK-3829,PAYLOAD,2024-05-26 23:07:59,15.0887381,9.58e-05,53.2166,244.8337,91.5832,268.527,0.00046136,7.069e-05,0.0,0 STARLINK-3829,1 52348U 22045T   24147.96388569  .00007069  00000-0  46136-3 0  9992,2 52348  53.2166 244.8337 0000958  91.5832 268.5270 15.08873810117390,6917.777,95.435,540.305,538.979,0.0
52348.0,STARLINK-3829,PAYLOAD,2024-05-27 13:26:30,15.08825946,0.0001151,53.2163,242.1564,93.8813,266.2311,-8.1994e-05,-1.592e-05,0.0,0 STARLINK-3829,1 52348U 22045T   24148.56007352 -.00001592  00000-0 -81994-4 0  9996,2 52348  53.2163 242.1564 0001151  93.8813 266.2311 15.08825946117488,6917.923,95.438,540.585,538.992,0.0
52348.0,STARLINK-3829,PAYLOAD,2024-05-28 05:20:21,15.08834402,0.0001113,53.216,239.1802,104.6318,255.4797,4.3054e-06,-2.19e-06,0.0,0 STARLINK-3829,1 52348U 22045T   24149.22247136 -.00000219  00000-0  43054-5 0  9996,2 52348  53.2160 239.1802 0001113 104.6318 255.4797 15.08834402117581,6917.897,95.438,540.532,538.993,0.0
52348.0,STARLINK-3829,PAYLOAD,2024-05-28 13:17:16,15.08844819,0.0001066,53.2157,237.696,96.3986,263.7127,6.1216e-05,6.87e-06,0.0,0 STARLINK-3829,1 52348U 22045T   24149.55366558  .00000687  00000-0  61216-4 0  9999,2 52348  53.2157 237.6960 0001066  96.3986 263.7127 15.08844819117638,6917.866,95.437,540.468,538.993,0.0
52348.0,STARLINK-3829,PAYLOAD,2024-05-29 13:08:04,15.0884028,0.000102,53.2151,233.2351,95.9441,264.1667,0.00020824,3.028e-05,0.0,0 STARLINK-3829,1 52348U 22045T   24150.54727072  .00003028  00000-0  20824-3 0  9993,2 52348  53.2151 233.2351 0001020  95.9441 264.1667 15.08840280117787,6917.88,95.438,540.45,539.039,0.0
52348.0,STARLINK-3829,PAYLOAD,2024-05-30 12:58:51,15.08848215,0.0001215,53.2161,228.7743,76.0852,284.0275,0.0001778,2.544e-05,0.0,0 STARLINK-3829,1 52348U 22045T   24151.54086964  .00002544  00000-0  17780-3 0  9991,2 52348  53.2161 228.7743 0001215  76.0852 284.0275 15.08848215117933,6917.855,95.437,540.561,538.88,0.0
52348.0,STARLINK-3829,PAYLOAD,2024-05-31 04:52:42,15.0884552,0.0001279,53.2161,225.8013,75.9166,284.1968,0.00021672,3.163e-05,0.0,0 STARLINK-3829,1 52348U 22045T   24152.20327051  .00003163  00000-0  21672-3 0  9993,2 52348  53.2161 225.8013 0001279  75.9166 284.1968 15.08845520118035,6917.864,95.437,540.613,538.844,0.0
52348.0,STARLINK-3829,PAYLOAD,2024-05-31 11:14:15,15.08845775,0.0001247,53.216,224.6113,78.1196,281.9936,0.00019623,2.837e-05,0.0,0 STARLINK-3829,1 52348U 22045T   24152.46823001  .00002837  00000-0  19623-3 0  9997,2 52348  53.2160 224.6113 0001247  78.1196 281.9936 15.08845775118071,6917.863,95.437,540.59,538.865,0.0
52348.0,STARLINK-3829,PAYLOAD,2024-05-31 22:21:56,15.08847922,0.0001347,53.2153,222.5285,96.6955,263.4191,0.0001589,2.242e-05,0.0,0 STARLINK-3829,1 52348U 22045T   24152.93190646  .00002242  00000-0  15890-3 0  9993,2 52348  53.2153 222.5285 0001347  96.6955 263.4191 15.08847922118141,6917.856,95.437,540.653,538.789,0.0
52348.0,STARLINK-3829,PAYLOAD,2024-06-01 11:05:02,15.08833382,0.000138,53.2157,220.151,91.2784,268.8366,-1.0123e-05,-4.49e-06,0.0,0 STARLINK-3829,1 52348U 22045T   24153.46183518 -.00000449  00000-0 -10123-4 0  9996,2 52348  53.2157 220.1510 0001380  91.2784 268.8366 15.08833382118225,6917.901,95.438,540.72,538.811,0.0
52348.0,STARLINK-3829,PAYLOAD,2024-06-01 14:15:48,15.08835624,0.0001392,53.2163,219.5562,92.6794,267.4357,-5.017e-05,-1.086e-05,0.0,0 STARLINK-3829,1 52348U 22045T   24153.59431447 -.00001086  00000-0 -50170-4 0  9991,2 52348  53.2163 219.5562 0001392  92.6794 267.4357 15.08835624118248,6917.894,95.438,540.722,538.796,0.0
52348.0,STARLINK-3829,PAYLOAD,2024-06-02 10:55:49,15.0884021,0.00014,53.216,215.6909,92.6438,267.4714,0.0001443,2.009e-05,0.0,0 STARLINK-3829,1 52348U 22045T   24154.45543515  .00002009  00000-0  14430-3 0  9999,2 52348  53.2160 215.6909 0001400  92.6438 267.4714 15.08840210118370,6917.88,95.438,540.713,538.776,0.0
52348.0,STARLINK-3829,PAYLOAD,2024-06-03 10:46:36,15.08842264,0.0001361,53.2156,211.2304,89.6541,270.4607,0.00025715,3.807e-05,0.0,0 STARLINK-3829,1 52348U 22045T   24155.44903769  .00003807  00000-0  25715-3 0  9995,2 52348  53.2156 211.2304 0001361  89.6541 270.4607 15.08842264118526,6917.873,95.437,540.68,538.797,0.0
52348.0,STARLINK-3829,PAYLOAD,2024-06-03 20:18:55,15.08852096,0.0001297,53.2155,209.4458,87.3652,272.7489,0.000349,5.273e-05,0.0,0 STARLINK-3829,1 52348U 22045T   24155.84647292  .00005273  00000-0  34900-3 0  9990,2 52348  53.2155 209.4458 0001297  87.3652 272.7489 15.08852096118583,6917.843,95.437,540.606,538.811,0.0
52348.0,STARLINK-3829,PAYLOAD,2024-06-04 04:15:51,15.08846827,0.0001521,53.2171,207.9632,102.9788,257.1374,0.00020959,3.05e-05,0.0,0 STARLINK-3829,1 52348U 22045T   24156.17767430  .00003050  00000-0  20959-3 0  9994,2 52348  53.2171 207.9632 0001521 102.9788 257.1374 15.08846827118633,6917.86,95.437,540.777,538.672,0.0
52348.0,STARLINK-3829,PAYLOAD,2024-06-04 10:37:23,15.08846742,0.0001323,53.2153,206.7708,91.9211,268.1932,0.00017293,2.466e-05,0.0,0 STARLINK-3829,1 52348U 22045T   24156.44263349  .00002466  00000-0  17293-3 0  9991,2 52348  53.2153 206.7708 0001323  91.9211 268.1932 15.08846742118674,6917.86,95.437,540.64,538.81,0.0
52348.0,STARLINK-3829,PAYLOAD,2024-06-04 20:09:42,15.08851336,0.0001407,53.2156,204.9869,91.7619,268.3534,0.00019757,2.859e-05,0.0,0 STARLINK-3829,1 52348U 22045T   24156.84006988  .00002859  00000-0  19757-3 0  9992,2 52348  53.2156 204.9869 0001407  91.7619 268.3534 15.08851336118730,6917.846,95.437,540.684,538.737,0.0
52348.0,STARLINK-3829,PAYLOAD,2024-06-05 12:03:33,15.0884102,0.000139,53.215,202.0115,90.0845,270.0306,5.4211e-05,5.75e-06,0.0,0 STARLINK-3829,1 52348U 22045T   24157.50247404  .00000575  00000-0  54211-4 0  9994,2 52348  53.2150 202.0115 0001390  90.0845 270.0306 15.08841020118838,6917.877,95.437,540.704,538.781,0.0
52348.0,STARLINK-3829,PAYLOAD,2024-06-05 20:00:29,15.08847778,0.0001398,53.2152,200.5241,89.0465,271.0687,0.00018332,2.631e-05,0.0,0 STARLINK-3829,1 52348U 22045T   24157.83367124  .00002631  00000-0  18332-3 0  9990,2 52348  53.2152 200.5241 0001398  89.0465 271.0687 15.08847778118881,6917.857,95.437,540.689,538.754,0.0
52348.0,STARLINK-3829,PAYLOAD,2024-06-06 08:43:34,15.08839754,0.0001536,53.2153,198.1454,88.3233,271.7935,0.0001291,1.767e-05,0.0,0 STARLINK-3829,1 52348U 22045T   24158.36359562  .00001767  00000-0  12910-3 0  9991,2 52348  53.2153 198.1454 0001536  88.3233 271.7935 15.08839754118966,6917.881,95.438,540.809,538.684,0.0
